NORAD_CAT_ID,OBJECT_NAME,OBJECT_TYPE,EPOCH,MEAN_MOTION,ECCENTRICITY,INCLINATION,RA_OF_ASC_NODE,ARG_OF_PERICENTER,MEAN_ANOMALY,BSTAR,MEAN_MOTION_DOT,MEAN_MOTION_DDOT,TLE_LINE0,TLE_LINE1,TLE_LINE2,SEMIMAJOR_AXIS,PERIOD,APOGEE,PERIGEE,DECAYED
51873.0,STARLINK-3582,PAYLOAD,2023-09-15 18:30:44,15.08837695,0.0001241,53.2173,115.9564,93.5443,266.5691,-2.8692e-05,-7.44e-06,0.0,0 STARLINK-3582,1 51873U 22022X   23258.77134609 -.00000744  00000-0 -28692-4 0  9997,2 51873  53.2173 115.9564 0001241  93.5443 266.5691 15.08837695 86353,6917.887,95.438,540.611,538.894,0.0
51873.0,STARLINK-3582,PAYLOAD,2023-09-16 00:52:16,15.08844867,0.0001226,53.2174,114.7672,91.9989,268.1144,3.2014e-05,2.22e-06,0.0,0 STARLINK-3582,1 51873U 22022X   23259.03630003  .00000222  00000-0  32014-4 0  9998,2 51873  53.2174 114.7672 0001226  91.9989 268.1144 15.08844867 86395,6917.866,95.437,540.579,538.882,0.0
51873.0,STARLINK-3582,PAYLOAD,2023-09-16 18:21:31,15.08831391,0.0001303,53.2174,111.4963,98.3861,261.7279,0.00011408,1.528e-05,0.0,0 STARLINK-3582,1 51873U 22022X   23259.76494979  .00001528  00000-0  11408-3 0  9991,2 51873  53.2174 111.4963 0001303  98.3861 261.7279 15.08831391 86507,6917.907,95.438,540.673,538.87,0.0
51873.0,STARLINK-3582,PAYLOAD,2023-09-17 00:43:04,15.08836417,0.0001273,53.2174,110.3068,94.3233,265.7904,0.00014464,2.015e-05,0.0,0 STARLINK-3582,1 51873U 22022X   23260.02990752  .00002015  00000-0  14464-3 0  9999,2 51873  53.2174 110.3068 0001273  94.3233 265.7904 15.08836417 86543,6917.891,95.438,540.637,538.876,0.0
51873.0,STARLINK-3582,PAYLOAD,2023-09-18 00:33:50,15.08839732,0.0001342,53.2168,105.846,101.9438,258.1705,0.00022639,3.317e-05,0.0,0 STARLINK-3582,1 51873U 22022X   23261.02350588  .00003317  00000-0  22639-3 0  9996,2 51873  53.2168 105.8460 0001342 101.9438 258.1705 15.08839732 86694,6917.881,95.438,540.675,538.818,0.0
51873.0,STARLINK-3582,PAYLOAD,2023-09-18 18:03:05,15.08838501,0.0001426,53.2177,102.573,77.1142,283.0009,4.9075e-05,4.93e-06,0.0,0 STARLINK-3582,1 51873U 22022X   23261.75215243  .00000493  00000-0  49075-4 0  9990,2 51873  53.2177 102.5730 0001426  77.1142 283.0009 15.08838501 86807,6917.885,95.438,540.736,538.763,0.0
51873.0,STARLINK-3582,PAYLOAD,2023-09-18 21:13:51,15.08844265,0.0001281,53.2173,101.9783,88.3412,271.7726,8.8739e-05,1.125e-05,0.0,0 STARLINK-3582,1 51873U 22022X   23261.88462665  .00001125  00000-0  88739-4 0  9999,2 51873  53.2173 101.9783 0001281  88.3412 271.7726 15.08844265 86823,6917.867,95.437,540.619,538.846,0.0
51873.0,STARLINK-3582,PAYLOAD,2023-09-19 19:29:15,15.08852433,0.0001416,53.2162,97.8164,83.493,276.6223,0.00019098,2.754e-05,0.0,0 STARLINK-3582,1 51873U 22022X   23262.81198105  .00002754  00000-0  19098-3 0  9998,2 51873  53.2162  97.8164 0001416  83.4930 276.6223 15.08852433 86965,6917.842,95.437,540.687,538.728,0.0
51873.0,STARLINK-3582,PAYLOAD,2023-09-20 19:20:03,15.08834336,0.000131,53.2178,93.3583,87.3522,272.762,-5.1475e-05,-1.107e-05,0.0,0 STARLINK-3582,1 51873U 22022X   23263.80559630 -.00001107  00000-0 -51475-4 0  9991,2 51873  53.2178  93.3583 0001310  87.3522 272.7620 15.08834336 87119,6917.898,95.438,540.669,538.856,0.0
51873.0,STARLINK-3582,PAYLOAD,2023-09-21 12:49:17,15.08840843,0.0001432,53.2186,90.085,98.9233,261.1922,-3.3217e-05,-8.17e-06,0.0,0 STARLINK-3582,1 51873U 22022X   23264.53423342 -.00000817  00000-0 -33217-4 0  9993,2 51873  53.2186  90.0850 0001432  98.9233 261.1922 15.08840843 87220,6917.878,95.438,540.733,538.752,0.0
51873.0,STARLINK-3582,PAYLOAD,2023-09-21 16:00:03,15.08842378,0.0001312,53.2173,89.4914,92.0324,268.0818,-4.4246e-06,-3.58e-06,0.0,0 STARLINK-3582,1 51873U 22022X   23264.66671173 -.00000358  00000-0 -44246-5 0  9999,2 51873  53.2173  89.4914 0001312  92.0324 268.0818 15.08842378 87249,6917.873,95.437,540.646,538.83,0.0
51873.0,STARLINK-3582,PAYLOAD,2023-09-22 12:40:04,15.08838136,0.0001307,53.2176,85.6252,97.8994,262.2146,0.00019169,2.764e-05,0.0,0 STARLINK-3582,1 51873U 22022X   23265.52783124  .00002764  00000-0  19169-3 0  9990,2 51873  53.2176  85.6252 0001307  97.8994 262.2146 15.08838136 87376,6917.886,95.438,540.655,538.847,0.0
51873.0,STARLINK-3582,PAYLOAD,2023-09-22 19:01:36,15.08846104,0.0001242,53.2172,84.4353,97.3258,262.7876,0.00026795,3.98e-05,0.0,0 STARLINK-3582,1 51873U 22022X   23265.79278708  .00003980  00000-0  26795-3 0  9990,2 51873  53.2172  84.4353 0001242  97.3258 262.7876 15.08846104 87411,6917.862,95.437,540.586,538.868,0.0
51873.0,STARLINK-3582,PAYLOAD,2023-09-23 12:30:51,15.08842294,0.000166,53.2168,81.1644,96.3807,263.7374,2.9027e-05,1.74e-06,0.0,0 STARLINK-3582,1 51873U 22022X   23266.52143099  .00000174  00000-0  29027-4 0  9990,2 51873  53.2168  81.1644 0001660  96.3807 263.7374 15.08842294 87528,6917.873,95.437,540.887,538.59,0.0
51873.0,STARLINK-3582,PAYLOAD,2023-09-24 12:21:38,15.08840964,0.0001213,53.2166,76.7041,89.4027,270.7104,-3.3158e-05,-8.16e-06,0.0,0 STARLINK-3582,1 51873U 22022X   23267.51503110 -.00000816  00000-0 -33158-4 0  9999,2 51873  53.2166  76.7041 0001213  89.4027 270.7104 15.08840964 87675,6917.877,95.437,540.582,538.903,0.0
51873.0,STARLINK-3582,PAYLOAD,2023-09-24 18:43:10,15.0884892,0.0001192,53.2166,75.5151,89.3284,270.7844,0.00011787,1.589e-05,0.0,0 STARLINK-3582,1 51873U 22022X   23267.77998734  .00001589  00000-0  11787-3 0  9996,2 51873  53.2166  75.5151 0001192  89.3284 270.7844 15.08848920 87710,6917.853,95.437,540.543,538.894,0.0
51873.0,STARLINK-3582,PAYLOAD,2023-09-25 10:37:02,15.08840434,0.0001622,53.2164,72.5432,81.3891,278.7285,0.00013329,1.834e-05,0.0,0 STARLINK-3582,1 51873U 22022X   23268.44239377  .00001834  00000-0  13329-3 0  9999,2 51873  53.2164  72.5432 0001622  81.3891 278.7285 15.08840434 87811,6917.879,95.438,540.866,538.622,0.0
51873.0,STARLINK-3582,PAYLOAD,2023-09-25 20:09:21,15.08841333,0.000136,53.2169,70.7573,81.1958,278.9188,0.00012513,1.704e-05,0.0,0 STARLINK-3582,1 51873U 22022X   23268.83983360  .00001704  00000-0  12513-3 0  9990,2 51873  53.2169  70.7573 0001360  81.1958 278.9188 15.08841333 87872,6917.876,95.437,540.682,538.8,0.0
51873.0,STARLINK-3582,PAYLOAD,2023-09-26 16:49:23,15.08834104,0.0001481,53.2169,66.8902,76.7997,283.3161,-7.9159e-06,-4.14e-06,0.0,0 STARLINK-3582,1 51873U 22022X   23269.70096177 -.00000414  00000-0 -79159-5 0  9998,2 51873  53.2169  66.8902 0001481  76.7997 283.3161 15.08834104 88006,6917.898,95.438,540.788,538.739,0.0
51873.0,STARLINK-3582,PAYLOAD,2023-09-26 20:00:08,15.08842309,0.0001402,53.2171,66.2947,85.1325,274.9827,0.00011265,1.505e-05,0.0,0 STARLINK-3582,1 51873U 22022X   23269.83343746  .00001505  00000-0  11265-3 0  9991,2 51873  53.2171  66.2947 0001402  85.1325 274.9827 15.08842309 88027,6917.873,95.437,540.708,538.768,0.0
51873.0,STARLINK-3582,PAYLOAD,2023-09-27 10:18:37,15.08838573,0.0001612,53.2171,63.6199,78.9368,281.1805,0.000186,2.673e-05,0.0,0 STARLINK-3582,1 51873U 22022X   23270.42960227  .00002673  00000-0  18600-3 0  9994,2 51873  53.2171  63.6199 0001612  78.9368 281.1805 15.08838573 88111,6917.885,95.438,540.865,538.635,0.0
51873.0,STARLINK-3582,PAYLOAD,2023-09-28 13:20:10,15.08843556,0.0001395,53.217,58.5658,92.4151,267.7,9.4879e-05,1.223e-05,0.0,0 STARLINK-3582,1 51873U 22022X   23271.55567941  .00001223  00000-0  94879-4 0  9998,2 51873  53.2170  58.5658 0001395  92.4151 267.7000 15.08843556 88284,6917.87,95.437,540.7,538.769,0.0
51873.0,STARLINK-3582,PAYLOAD,2023-09-28 14:55:33,15.08838438,0.0001506,53.217,58.2686,107.2386,252.8771,0.0002748,4.088e-05,0.0,0 STARLINK-3582,1 51873U 22022X   23271.62192125  .00004088  00000-0  27480-3 0  9999,2 51873  53.2170  58.2686 0001506 107.2386 252.8771 15.08838438 88295,6917.885,95.438,540.792,538.708,0.0
51873.0,STARLINK-3582,PAYLOAD,2023-09-28 16:30:56,15.08844576,0.0001404,53.2173,57.9713,92.0896,268.0257,9.6342e-05,1.246e-05,0.0,0 STARLINK-3582,1 51873U 22022X   23271.68815845  .00001246  00000-0  96342-4 0  9993,2 51873  53.2173  57.9713 0001404  92.0896 268.0257 15.08844576 88309,6917.866,95.437,540.703,538.76,0.0
51873.0,STARLINK-3582,PAYLOAD,2023-09-29 14:46:21,15.08819731,0.0001578,53.2175,53.8074,90.7634,269.3539,0.00040801,6.208e-05,0.0,0 STARLINK-3582,1 51873U 22022X   23272.61552618  .00006208  00000-0  40801-3 0  9994,2 51873  53.2175  53.8074 0001578  90.7634 269.3539 15.08819731 88440,6917.942,95.439,540.899,538.716,0.0
51873.0,STARLINK-3582,PAYLOAD,2023-09-30 01:54:02,15.08845306,0.0001361,53.2181,51.7261,76.5281,283.5862,2.8965e-05,1.73e-06,0.0,0 STARLINK-3582,1 51873U 22022X   23273.07919740  .00000173  00000-0  28965-4 0  9991,2 51873  53.2181  51.7261 0001361  76.5281 283.5862 15.08845306 88514,6917.864,95.437,540.671,538.788,0.0
51873.0,STARLINK-3582,PAYLOAD,2023-09-30 09:50:58,15.08837319,0.0001401,53.2181,50.239,82.9262,277.1889,4.3165e-05,3.99e-06,0.0,0 STARLINK-3582,1 51873U 22022X   23273.41040275  .00000399  00000-0  43165-4 0  9996,2 51873  53.2181  50.2390 0001401  82.9262 277.1889 15.08837319 88564,6917.889,95.438,540.723,538.784,0.0
51873.0,STARLINK-3582,PAYLOAD,2023-09-30 16:12:30,15.08845482,0.0001473,53.2193,49.0529,88.8098,271.3063,0.00012301,1.671e-05,0.0,0 STARLINK-3582,1 51873U 22022X   23273.67535541  .00001671  00000-0  12301-3 0  9990,2 51873  53.2193  49.0529 0001473  88.8098 271.3063 15.08845482 88603,6917.864,95.437,540.748,538.71,0.0
51873.0,STARLINK-3582,PAYLOAD,2023-10-01 09:41:45,15.08838997,0.0001552,53.2192,45.7824,93.3022,266.8148,0.00016922,2.406e-05,0.0,0 STARLINK-3582,1 51873U 22022X   23274.40399797  .00002406  00000-0  16922-3 0  9993,2 51873  53.2192  45.7824 0001552  93.3022 266.8148 15.08838997 88717,6917.883,95.438,540.822,538.675,0.0
51873.0,STARLINK-3582,PAYLOAD,2023-10-01 12:52:31,15.08844404,0.0001603,53.2191,45.1875,90.2,269.9176,0.00013745,1.9e-05,0.0,0 STARLINK-3582,1 51873U 22022X   23274.53647538  .00001900  00000-0  13745-3 0  9994,2 51873  53.2191  45.1875 0001603  90.2000 269.9176 15.08844404 88732,6917.867,95.437,540.841,538.623,0.0
